QIANFAN-25              
1 61558U 24185G   25280.95677804  .00000477  00000+0  28348-3 0  9993
2 61558  88.9749  85.6314 0009908 142.2563 217.9316 14.05814271 60264
QIANFAN-26              
1 61559U 24185H   25280.95068049  .00000326  00000+0  31381-3 0  9993
2 61559  88.9750  86.8496 0005029 191.2882 168.8172 13.77757226 59614
QIANFAN-27              
1 61560U 24185J   25280.91651601  .00000815  00000+0  32785-3 0  9995
2 61560  88.9748  84.6587 0009469 134.8474 225.3491 14.27206745 60775
QIANFAN-28              
1 61561U 24185K   25280.92913995  .00001272  00000+0  50886-3 0  9994
2 61561  88.9764  84.6553 0008561 134.1485 226.0415 14.27826882 60789
QIANFAN-29              
1 61562U 24185L   25280.89647524  .00000233  00000+0  34317-3 0  9990
2 61562  88.9727  88.1131 0008590 236.1439 123.8895 13.50977319 58908
QIANFAN-30              
1 61563U 24185M   25280.89562584  .00000223  00000+0  33165-3 0  9992
2 61563  88.9746  87.6132 0006405 215.1639 144.9090 13.49954872 59186
QIANFAN-31              
1 61564U 24185N   25280.95571727  .00000233  00000+0  30631-3 0  9995
2 61564  88.9732  87.5131 0006102 209.9843 150.0963 13.57927698 59230
QIANFAN-32              
1 61565U 24185P   25280.90052360  .00000224  00000+0  32968-3 0  9993
2 61565  88.9789  87.7270 0007658 248.5309 111.5026 13.50706492 59155
